{
    "links": {
        "self": "http://www.neowsapp.com/rest/v1/neo/3739242?api_key=iIulBulltgU6a56xZRHN4H3l9WmuAYTsLGpBGhQ2"
    },
    "id": "3739242",
    "neo_reference_id": "3739242",
    "name": "(2016 AW8)",
    "designation": "2016 AW8",
    "nasa_jpl_url": "http://ssd.jpl.nasa.gov/sbdb.cgi?sstr=3739242",
    "absolute_magnitude_h": 24.8,
    "estimated_diameter": {
        "kilometers": {
            "estimated_diameter_min": 0.0291443905,
            "estimated_diameter_max": 0.0651688382
        },
        "meters": {
            "estimated_diameter_min": 29.1443904535,
            "estimated_diameter_max": 65.1688382168
        },
        "miles": {
            "estimated_diameter_min": 0.018109479,
            "estimated_diameter_max": 0.0404940262
        },
        "feet": {
            "estimated_diameter_min": 95.6180819754,
            "estimated_diameter_max": 213.8085311752
        }
    },
    "is_potentially_hazardous_asteroid": false,
    "close_approach_data": [
        {
            "close_approach_date": "2015-12-25",
            "close_approach_date_full": "2015-Dec-25 20:48",
            "epoch_date_close_approach": 1451076480000,
            "relative_velocity": {
                "kilometers_per_second": "9.4650126505",
                "kilometers_per_hour": "34074.0455418954",
                "miles_per_hour": "21172.2867979627"
            },
            "miss_distance": {
                "astronomical": "0.0966449881",
                "lunar": "37.5949003709",
                "kilometers": "14457884.365935347",
                "miles": "8983712.7646959086"
            },
            "orbiting_body": "Earth"
        }
    ],
    "orbital_data": {
        "orbit_id": "5",
        "orbit_determination_date": "2017-04-06 08:29:26",
        "first_observation_date": "2016-01-02",
        "last_observation_date": "2016-01-10",
        "data_arc_in_days": 8,
        "observations_used": 15,
        "orbit_uncertainty": "9",
        "minimum_orbit_intersection": ".0665805",
        "jupiter_tisserand_invariant": "3.193",
        "epoch_osculation": "2457391.5",
        "eccentricity": ".5856945395195423",
        "semi_major_axis": "2.504503252714673",
        "inclination": "7.414092192795399",
        "ascending_node_longitude": "96.61396191733738",
        "orbital_period": "1447.707508841038",
        "perihelion_distance": "1.037629373390757",
        "perihelion_argument": "336.5878558522922",
        "aphelion_distance": "3.97137713203859",
        "perihelion_time": "2457368.050591680117",
        "mean_anomaly": "5.831141265486666",
        "mean_motion": ".2486690148400197",
        "equinox": "J2000",
        "orbit_class": {
            "orbit_class_type": "AMO",
            "orbit_class_description": "Near-Earth asteroid orbits similar to that of 1221 Amor",
            "orbit_class_range": "1.017 AU < q (perihelion) < 1.3 AU"
        }
    },
    "is_sentry_object": false
}